HELIOS 2A               
1 28492U 04049A   22246.45732499  .00000403  00000+0  44491-4 0  9993
2 28492  98.2374 193.1441 0014239 180.8219 179.2979 14.93284521946766
CFESAT                  
1 30777U 07006F   22245.75643360  .00060719  00000+0  57093-3 0  9995
2 30777  35.4165 144.8842 0004380 331.0001  29.0491 15.65965189861267
SPIRALE A               
1 33751U 09008C   22245.75270418  .00000108  00000+0  39456-3 0  9993
2 33751   1.9817 182.6564 5441431  30.9331 352.0110  4.58860527198364
SPIRALE B               
1 33752U 09008D   22244.99300920  .00002975  00000+0  65158-3 0  9993
2 33752   2.1672  71.8968 6860675 236.0242  40.2597  2.82822805127246
SAPPHIRE                
1 39088U 13009C   22245.78044925  .00000013  00000+0  19884-4 0  9992
2 39088  98.4255  79.5993 0012342  50.7559 309.4719 14.34318484498226
